IRIDIUM 921             
1 24873U 97034E   24249.95659816  .00076371  00000+0  15194-2 0  9992
2 24873  86.3737 247.9083 0001406 114.1655 245.9750 15.46652662487630
IRIDIUM 26              
1 24903U 97043A   24249.92504923  .00001816  00000+0  61207-3 0  9990
2 24903  86.3943 229.8647 0002220  84.4189 275.7261 14.36551366415922
IRIDIUM 22              
1 24907U 97043E   24250.04335774  .00001677  00000+0  57753-3 0  9991
2 24907  86.3939 233.1151 0002345  89.7670 270.3795 14.35429542415999
DUMMY MASS 1            
1 24925U 97048A   24249.51220924  .00001375  00000+0  15272-3 0  9991
2 24925  86.3290 266.8600 0009137  79.7347 280.4908 14.86390557462839
DUMMY MASS 2            
1 24926U 97048B   24249.56192587  .00001341  00000+0  14969-3 0  9995
2 24926  86.3290 268.3953 0010004  87.8847 272.3523 14.86147734462625
IRIDIUM 29              
1 24944U 97051A   24249.95115791  .00001475  00000+0  50259-3 0  9994
2 24944  86.3895 263.0293 0002488  92.3496 267.7986 14.35876517412474
IRIDIUM 33              
1 24946U 97051C   24249.56634565  .00000962  00000+0  33476-3 0  9990
2 24946  86.3811 262.4376 0005820 293.9039  66.1547 14.34485800411949
IRIDIUM 28              
1 24948U 97051E   24250.11035489  .00001456  00000+0  48646-3 0  9999
2 24948  86.3902 260.6375 0001876  84.7991 275.3421 14.36832111413110
